[{"OBJECT_NAME":"STARLINK-5325","OBJECT_ID":"2023-010Z","EPOCH":"2026-03-09T23:31:08.435136","MEAN_MOTION":14.98337252,"ECCENTRICITY":0.00032307,"INCLINATION":70.0015,"RA_OF_ASC_NODE":23.6853,"ARG_OF_PERICENTER":268.8951,"MEAN_ANOMALY":91.1838,"EPHEMERIS_TYPE":0,"CLASSIFICATION_TYPE":"U","NORAD_CAT_ID":55292,"ELEMENT_SET_NO":999,"REV_AT_EPOCH":17331,"BSTAR":5.7518149e-5,"MEAN_MOTION_DOT":5.93e-6,"MEAN_MOTION_DDOT":0},{"OBJECT_NAME":"RROCI-2","OBJECT_ID":"2024-043J","EPOCH":"2026-03-09T21:40:56.693280","MEAN_MOTION":14.99383357,"ECCENTRICITY":0.00054118,"INCLINATION":97.8279,"RA_OF_ASC_NODE":200.9973,"ARG_OF_PERICENTER":337.3784,"MEAN_ANOMALY":22.7199,"EPHEMERIS_TYPE":0,"CLASSIFICATION_TYPE":"U","NORAD_CAT_ID":59106,"ELEMENT_SET_NO":999,"REV_AT_EPOCH":10988,"BSTAR":0.00035067832,"MEAN_MOTION_DOT":4.232e-5,"MEAN_MOTION_DDOT":0}]
